{
  "type": "FeatureCollection",
  "features": [
    {
      "type": "Feature",
      "properties": {
        "norad_id": 39773,
        "name": "EUTELSAT 3B",
        "group": "eutelsat",
        "lat": -0.07142496271908404,
        "lon": -119.04271175059262,
        "alt_km": 35768.526457360356,
        "timestamp": "2025-12-26T09:30:53.299976+00:00",
        "meta_object_name": "EUTELSAT 3B",
        "meta_object_id": "2014-030A",
        "meta_epoch": "2025-12-25T22:09:38.747232",
        "meta_mean_motion": 1.00270275,
        "meta_eccentricity": 0.0004276,
        "meta_inclination": 0.0601,
        "meta_ra_of_asc_node": 351.2904,
        "meta_arg_of_pericenter": 244.007,
        "meta_mean_anomaly": 194.888,
        "meta_ephemeris_type": 0,
        "meta_classification_type": "U",
        "meta_norad_cat_id": 39773,
        "meta_element_set_no": 999,
        "meta_rev_at_epoch": 4233,
        "meta_bstar": 0,
        "meta_mean_motion_dot": 4.1e-07,
        "meta_mean_motion_ddot": 0,
        "tle_line1": "1 39773U 14030A   25359.92336513  .00000041  00000+0  00000+0 0  9996",
        "tle_line2": "2 39773   0.0601 351.2904 0004276 244.0070 194.8880  1.00270275 42332"
      },
      "geometry": {
        "type": "Point",
        "coordinates": [
          -119.04271175059262,
          -0.07142496271908404
        ]
      }
    },
    {
      "type": "Feature",
      "properties": {
        "norad_id": 40425,
        "name": "EUTELSAT 115 WEST B",
        "group": "eutelsat",
        "lat": -0.005218387519223595,
        "lon": 122.95173095188824,
        "alt_km": 35785.455990261355,
        "timestamp": "2025-12-26T09:30:53.299988+00:00",
        "meta_object_name": "EUTELSAT 115 WEST B",
        "meta_object_id": "2015-010B",
        "meta_epoch": "2025-12-26T04:39:38.472192",
        "meta_mean_motion": 1.00273716,
        "meta_eccentricity": 7.9e-06,
        "meta_inclination": 0.0096,
        "meta_ra_of_asc_node": 155.377,
        "meta_arg_of_pericenter": 251.4809,
        "meta_mean_anomaly": 3.0875,
        "meta_ephemeris_type": 0,
        "meta_classification_type": "U",
        "meta_norad_cat_id": 40425,
        "meta_element_set_no": 999,
        "meta_rev_at_epoch": 3965,
        "meta_bstar": 0,
        "meta_mean_motion_dot": -3e-08,
        "meta_mean_motion_ddot": 0,
        "tle_line1": "1 40425U 15010B   25360.19419528 -.00000003  00000+0  00000+0 0  9999",
        "tle_line2": "2 40425   0.0096 155.3770 0000079 251.4809   3.0875  1.00273716 39658"
      },
      "geometry": {
        "type": "Point",
        "coordinates": [
          122.95173095188824,
          -0.005218387519223595
        ]
      }
    },
    {
      "type": "Feature",
      "properties": {
        "norad_id": 40875,
        "name": "EUTELSAT 8 WEST B",
        "group": "eutelsat",
        "lat": -0.05298244117945818,
        "lon": -130.180507995834,
        "alt_km": 35773.72253186799,
        "timestamp": "2025-12-26T09:30:53.300001+00:00",
        "meta_object_name": "EUTELSAT 8 WEST B",
        "meta_object_id": "2015-039B",
        "meta_epoch": "2025-12-26T00:08:38.731776",
        "meta_mean_motion": 1.00271363,
        "meta_eccentricity": 0.0004213,
        "meta_inclination": 0.0647,
        "meta_ra_of_asc_node": 10.9589,
        "meta_arg_of_pericenter": 264.4532,
        "meta_mean_anomaly": 173.5041,
        "meta_ephemeris_type": 0,
        "meta_classification_type": "U",
        "meta_norad_cat_id": 40875,
        "meta_element_set_no": 999,
        "meta_rev_at_epoch": 3792,
        "meta_bstar": 0,
        "meta_mean_motion_dot": -4.4e-07,
        "meta_mean_motion_ddot": 0,
        "tle_line1": "1 40875U 15039B   25360.00600384 -.00000044  00000+0  00000+0 0  9996",
        "tle_line2": "2 40875   0.0647  10.9589 0004213 264.4532 173.5041  1.00271363 37926"
      },
      "geometry": {
        "type": "Point",
        "coordinates": [
          -130.180507995834,
          -0.05298244117945818
        ]
      }
    },
    {
      "type": "Feature",
      "properties": {
        "norad_id": 41310,
        "name": "EUTELSAT 9B",
        "group": "eutelsat",
        "lat": -0.022230858185555043,
        "lon": -113.17447626054735,
        "alt_km": 35769.12941459404,
        "timestamp": "2025-12-26T09:30:53.300013+00:00",
        "meta_object_name": "EUTELSAT 9B",
        "meta_object_id": "2016-005A",
        "meta_epoch": "2025-12-25T22:01:38.543808",
        "meta_mean_motion": 1.0026988,
        "meta_eccentricity": 0.0004684,
        "meta_inclination": 0.0266,
        "meta_ra_of_asc_node": 46.8521,
        "meta_arg_of_pericenter": 228.3219,
        "meta_mean_anomaly": 158.904,
        "meta_ephemeris_type": 0,
        "meta_classification_type": "U",
        "meta_norad_cat_id": 41310,
        "meta_element_set_no": 999,
        "meta_rev_at_epoch": 3637,
        "meta_bstar": 0,
        "meta_mean_motion_dot": 8.3e-07,
        "meta_mean_motion_ddot": 0,
        "tle_line1": "1 41310U 16005A   25359.91780722  .00000083  00000+0  00000+0 0  9990",
        "tle_line2": "2 41310   0.0266  46.8521 0004684 228.3219 158.9040  1.00269880 36370"
      },
      "geometry": {
        "type": "Point",
        "coordinates": [
          -113.17447626054735,
          -0.022230858185555043
        ]
      }
    },
    {
      "type": "Feature",
      "properties": {
        "norad_id": 41382,
        "name": "EUTELSAT 65 WEST A",
        "group": "eutelsat",
        "lat": -0.0007941990517532723,
        "lon": 172.65110976356715,
        "alt_km": 35788.877992641465,
        "timestamp": "2025-12-26T09:30:53.300024+00:00",
        "meta_object_name": "EUTELSAT 65 WEST A",
        "meta_object_id": "2016-014A",
        "meta_epoch": "2025-12-26T00:48:38.495232",
        "meta_mean_motion": 1.00271394,
        "meta_eccentricity": 0.0002343,
        "meta_inclination": 0.0476,
        "meta_ra_of_asc_node": 346.6091,
        "meta_arg_of_pericenter": 291.5332,
        "meta_mean_anomaly": 123.6234,
        "meta_ephemeris_type": 0,
        "meta_classification_type": "U",
        "meta_norad_cat_id": 41382,
        "meta_element_set_no": 999,
        "meta_rev_at_epoch": 3579,
        "meta_bstar": 0,
        "meta_mean_motion_dot": -2.55e-06,
        "meta_mean_motion_ddot": 0,
        "tle_line1": "1 41382U 16014A   25360.03377888 -.00000255  00000+0  00000+0 0  9991",
        "tle_line2": "2 41382   0.0476 346.6091 0002343 291.5332 123.6234  1.00271394 35795"
      },
      "geometry": {
        "type": "Point",
        "coordinates": [
          172.65110976356715,
          -0.0007941990517532723
        ]
      }
    },
    {
      "type": "Feature",
      "properties": {
        "norad_id": 41589,
        "name": "EUTELSAT 117 WEST B",
        "group": "eutelsat",
        "lat": -0.003749961360626095,
        "lon": 120.88804571029299,
        "alt_km": 35786.968521025774,
        "timestamp": "2025-12-26T09:30:53.300037+00:00",
        "meta_object_name": "EUTELSAT 117 WEST B",
        "meta_object_id": "2016-038B",
        "meta_epoch": "2025-12-24T09:59:01.014144",
        "meta_mean_motion": 1.00277873,
        "meta_eccentricity": 6.384e-05,
        "meta_inclination": 0.0094,
        "meta_ra_of_asc_node": 154.0765,
        "meta_arg_of_pericenter": 139.5473,
        "meta_mean_anomaly": 192.3072,
        "meta_ephemeris_type": 0,
        "meta_classification_type": "U",
        "meta_norad_cat_id": 41589,
        "meta_element_set_no": 999,
        "meta_rev_at_epoch": 3491,
        "meta_bstar": 0,
        "meta_mean_motion_dot": 9e-08,
        "meta_mean_motion_ddot": 0,
        "tle_line1": "1 41589U 16038B   25358.41598396  .00000009  00000+0  00000+0 0  9990",
        "tle_line2": "2 41589   0.0094 154.0765 0000638 139.5473 192.3072  1.00277873 34915"
      },
      "geometry": {
        "type": "Point",
        "coordinates": [
          120.88804571029299,
          -0.003749961360626095
        ]
      }
    },
    {
      "type": "Feature",
      "properties": {
        "norad_id": 42741,
        "name": "EUTELSAT 172B",
        "group": "eutelsat",
        "lat": -0.013311965773473733,
        "lon": 49.87629571107857,
        "alt_km": 35785.051117095965,
        "timestamp": "2025-12-26T09:30:53.300049+00:00",
        "meta_object_name": "EUTELSAT 172B",
        "meta_object_id": "2017-029B",
        "meta_epoch": "2025-12-25T20:43:50.636064",
        "meta_mean_motion": 1.00277797,
        "meta_eccentricity": 3.2e-05,
        "meta_inclination": 0.0359,
        "meta_ra_of_asc_node": 152.4382,
        "meta_arg_of_pericenter": 137.6622,
        "meta_mean_anomaly": 287.4819,
        "meta_ephemeris_type": 0,
        "meta_classification_type": "U",
        "meta_norad_cat_id": 42741,
        "meta_element_set_no": 999,
        "meta_rev_at_epoch": 3199,
        "meta_bstar": 0,
        "meta_mean_motion_dot": 1.7e-07,
        "meta_mean_motion_ddot": 0,
        "tle_line1": "1 42741U 17029B   25359.86378051  .00000017  00000+0  00000+0 0  9995",
        "tle_line2": "2 42741   0.0359 152.4382 0000320 137.6622 287.4819  1.00277797 31995"
      },
      "geometry": {
        "type": "Point",
        "coordinates": [
          49.87629571107857,
          -0.013311965773473733
        ]
      }
    }
  ]
}